FENGYUN 1C DEB          
1 37478U 99025EJY 17342.21708164  .00000755  00000-0  13763-2 0  9999
2 37478  99.6447 254.5372 0561458 155.5846 207.2989 12.94813700186110
